IRIDIUM 921             
1 24873U 97034E   24230.53117667  .00060750  00000+0  13090-2 0  9996
2 24873  86.3751 257.6296 0004068  62.8514 297.3156 15.44355617484917
IRIDIUM 26              
1 24903U 97043A   24231.11776008  .00001506  00000+0  50682-3 0  9998
2 24903  86.3924 237.7605 0002385  85.4174 274.7295 14.36500608413691
IRIDIUM 22              
1 24907U 97043E   24230.45458196  .00001302  00000+0  44732-3 0  9996
2 24907  86.3925 241.3247 0002281  91.0279 269.1179 14.35380662413192
DUMMY MASS 1            
1 24925U 97048A   24231.20045809  .00001252  00000+0  13891-3 0  9994
2 24925  86.3311 275.3311 0008517 128.1080 232.0914 14.86351697460358
DUMMY MASS 2            
1 24926U 97048B   24231.17985124  .00001254  00000+0  13992-3 0  9998
2 24926  86.3312 276.8955 0008992 138.4113 221.7797 14.86109057460139
IRIDIUM 29              
1 24944U 97051A   24231.20480033  .00001184  00000+0  40247-3 0  9990
2 24944  86.3914 270.8985 0002341  97.7779 262.3683 14.35835948410006
IRIDIUM 33              
1 24946U 97051C   24230.87170321  .00000832  00000+0  28847-3 0  9991
2 24946  86.3828 270.2858 0007727   5.0125 355.1147 14.34459597409257
IRIDIUM 28              
1 24948U 97051E   24231.16752726  .00001187  00000+0  39577-3 0  9997
2 24948  86.3918 268.6003 0002314  80.7620 279.3839 14.36791537410396
